OBJECT_NAME,OBJECT_ID,EPOCH,MEAN_MOTION,ECCENTRICITY,INCLINATION,RA_OF_ASC_NODE,ARG_OF_PERICENTER,MEAN_ANOMALY,EPHEMERIS_TYPE,CLASSIFICATION_TYPE,NORAD_CAT_ID,ELEMENT_SET_NO,REV_AT_EPOCH,BSTAR,MEAN_MOTION_DOT,MEAN_MOTION_DDOT
STARLINK-5931,2023-078U,2026-06-30T16:35:19.241088,14.98329748,.0002898,69.9999,59.6657,269.3325,90.7502,0,U,56785,999,17029,-.18865698E-4,-.318E-5,0
STARLINK-6341,2023-078V,2026-06-30T14:10:46.825536,14.98329608,.00025605,70.0002,39.8498,265.1268,94.9598,0,U,56786,999,17008,-.27488508E-4,-.421E-5,0
STARLINK-6326,2023-078W,2026-06-30T23:11:30.881760,14.98333671,.00029397,69.9999,38.7550,271.2694,88.8128,0,U,56787,999,17014,.40647444E-4,.392E-5,0
STARLINK-6336,2023-078X,2026-06-29T23:39:33.308352,14.98331754,.0002888,70.0001,41.3502,270.5250,89.5578,0,U,56788,999,16999,.33234226E-4,.304E-5,0
STARLINK-6345,2023-078Z,2026-06-30T12:04:16.436928,14.98320993,.00028817,69.9998,20.0607,269.6135,90.4694,0,U,56790,999,17056,.43149746E-4,.422E-5,0
STARLINK-5977,2023-078AA,2026-06-30T15:41:13.584480,14.98339498,.00019665,69.9998,59.5369,275.8690,84.2245,0,U,56791,999,16960,-.27570782E-4,-.422E-5,0
STARLINK-6046,2023-078AB,2026-06-30T23:05:52.199808,14.98329807,.00027206,70.0000,59.0080,268.7045,91.3802,0,U,56792,999,16964,-.26873798E-4,-.414E-5,0
STARLINK-6052,2023-078AC,2026-06-30T14:29:07.892448,14.98333918,.00028067,69.9997,59.7611,265.0428,95.0411,0,U,56793,999,16959,-.13328105E-4,-.252E-5,0
STARLINK-6060,2023-078AD,2026-06-29T23:27:32.118048,14.98331800,.00027106,69.9998,41.3205,269.8253,90.2595,0,U,56794,999,16999,.23958129E-4,.193E-5,0
STARLINK-6061,2023-078AE,2026-06-30T14:53:03.247872,14.98327901,.00029884,70.0001,39.5493,270.6741,89.4076,0,U,56795,999,17009,.22686407E-4,.178E-5,0
STARLINK-6049,2023-078AF,2026-06-30T22:53:50.510112,14.98336124,.00028987,69.9998,58.9775,270.5464,89.5363,0,U,56796,999,16964,.91885142E-4,.1004E-4,0
STARLINK-6058,2023-078AG,2026-06-30T23:11:52.858464,14.98333490,.0002676,70.0002,59.0150,262.6909,97.3946,0,U,56797,999,16964,-.318074E-4,-.472E-5,0
STARLINK-5953,2023-078AJ,2026-06-30T22:35:48.701760,14.98331866,.00029525,69.9998,58.9294,268.6143,91.4678,0,U,56799,999,16964,.12060834E-4,.51E-6,0
STARLINK-6036,2023-078AK,2026-06-30T22:41:49.353504,14.98332080,.00028673,69.9996,58.9471,270.1745,89.9086,0,U,56800,999,16964,.31381715E-4,.281E-5,0
STARLINK-6087,2023-078AL,2026-06-30T23:05:30.166944,14.98330501,.00026862,69.9989,38.7367,266.0326,94.0526,0,U,56801,999,17014,-.30444737E-4,-.456E-5,0
STARLINK-6029,2023-078AN,2026-06-30T15:59:15.221760,14.98330188,.00029996,69.9994,59.5772,271.1668,88.9148,0,U,56803,999,16960,.3219582E-5,-.55E-6,0
STARLINK-6069,2023-078AP,2026-06-30T23:17:31.619904,14.98333242,.00025973,69.9998,38.7663,273.3127,86.7735,0,U,56804,999,17081,-.4333814E-5,-.145E-5,0
STARLINK-6064,2023-078AQ,2026-06-29T23:21:31.537152,14.98331605,.00024325,69.9999,41.3042,271.2994,88.7887,0,U,56805,999,16999,.35263789E-4,.328E-5,0
STARLINK-6072,2023-078AR,2026-06-29T22:27:06.223680,14.98330229,.00027804,69.9999,21.2903,266.6916,93.3925,0,U,56806,999,17045,-.8971942E-5,-.2E-5,0
STARLINK-6073,2023-078AS,2026-06-30T14:52:48.970272,14.98327039,.00030174,70.0018,39.5478,269.4440,90.6373,0,U,56807,999,17008,.92904485E-4,.1016E-4,0
STARLINK-6042,2023-078AT,2026-06-30T21:25:33.511008,14.98314329,.00028574,70.0005,349.1150,267.1020,92.9812,0,U,56808,999,17137,.35710791E-3,.4169E-4,0
STARLINK-6040,2023-078AU,2026-06-30T15:29:12.152256,14.98331970,.00026498,70.0003,59.5053,268.2975,91.7881,0,U,56809,999,16960,-.3627819E-4,-.526E-5,0
STARLINK-6031,2023-078AV,2026-06-30T01:27:58.858560,14.98366720,.00028588,69.9997,61.0764,267.8379,92.2453,0,U,56810,999,16951,.36685578E-3,.4291E-4,0
STARLINK-6065,2023-078AX,2026-06-30T22:00:01.999584,14.98324433,.00029826,70.0013,38.8576,269.7526,204.2591,0,U,56812,999,581,.13802089E-2,.16412E-3,0
STARLINK-6056,2023-078AY,2026-06-30T15:23:25.609632,14.98331854,.00027603,70.0003,59.4909,269.3845,90.6998,0,U,56813,999,16960,-.2900541E-5,-.128E-5,0
STARLINK-6059,2023-078AZ,2026-06-30T15:35:12.888672,14.98328490,.00026234,70.0001,59.5186,268.7517,91.3341,0,U,56814,999,16960,-.38429512E-4,-.551E-5,0
STARLINK-6067,2023-078BB,2026-06-30T00:21:35.965440,14.98311683,.00029758,70.0001,41.0483,262.5096,97.5725,0,U,56816,999,17000,.34828293E-3,.4063E-4,0
STARLINK-6028,2023-078BD,2026-06-30T15:23:11.294880,14.98335597,.0002626,70.0021,59.4904,264.5780,95.5079,0,U,56818,999,17029,.1707656E-3,.1945E-4,0
STARLINK-30119,2023-079A,2026-06-30T00:15:46.021248,15.27581221,.00012285,43.0025,192.9523,274.7769,85.2943,0,U,56823,999,17049,-.26843885E-4,-.1001E-4,0
STARLINK-30120,2023-079B,2026-06-30T11:35:13.507872,15.27575402,.00017535,43.0035,190.4815,280.8520,79.2134,0,U,56824,999,17045,.8398803E-5,-.31E-6,0
STARLINK-30084,2023-079C,2026-06-28T11:03:33.681600,15.27581292,.00012839,43.0029,201.1091,268.1176,91.9529,0,U,56825,999,16983,.47779875E-4,.1053E-4,0
STARLINK-30114,2023-079D,2026-06-29T17:47:59.639136,15.27572491,.00037167,43.0015,194.1849,265.4768,94.5659,0,U,56826,999,17033,-.39660659E-4,-.1354E-4,0
STARLINK-30151,2023-079E,2026-06-29T17:35:05.454528,15.27588668,.00014476,43.0034,194.2922,285.5016,74.5676,0,U,56827,999,17002,-.10225097E-3,-.3076E-4,0
STARLINK-30152,2023-079F,2026-06-29T17:40:38.841024,15.27577332,.00013648,42.9996,194.3346,276.0740,83.9956,0,U,56828,999,17002,.43339301E-4,.931E-5,0
STARLINK-30128,2023-079K,2026-06-30T22:55:18.966432,15.27582015,.0001002,43.0005,161.5709,251.8247,108.2496,0,U,56832,999,16410,.19338758E-4,.27E-5,0
STARLINK-30131,2023-079L,2026-06-30T10:11:16.302336,15.24437994,.00013609,42.9985,168.9161,93.0273,267.0734,0,U,56833,999,17037,.30080956E-3,.7282E-4,0
STARLINK-30069,2023-079M,2026-06-30T10:51:31.604832,15.27576894,.00011702,43.0005,186.8340,269.4812,90.5906,0,U,56834,999,17017,.16081476E-4,.18E-5,0
STARLINK-30144,2023-079N,2026-06-30T11:09:29.278944,15.41222123,.00124626,42.9906,180.8067,102.1465,258.0788,0,U,56835,999,17024,.21129161E-2,.90801E-3,0
STARLINK-30142,2023-079P,2026-06-30T22:00:01.999584,15.27561848,.00014663,43.0024,184.3678,257.3698,75.0082,0,U,56836,999,590,.18717319E-2,.51576E-3,0
STARLINK-30133,2023-079Q,2026-06-29T18:24:50.777568,15.27579185,.00018398,43.0051,193.6978,270.7436,89.3205,0,U,56837,999,17003,.28248284E-4,.515E-5,0
STARLINK-30123,2023-079R,2026-06-30T20:34:14.674656,15.27585302,.00019017,43.0018,114.8319,281.6593,78.4045,0,U,56838,999,17105,.11001548E-4,.4E-6,0
STARLINK-30076,2023-079S,2026-06-30T12:23:08.124864,15.27580779,.00005028,42.9989,189.8457,340.9258,19.1575,0,U,56839,999,17014,.15501554E-4,.165E-5,0
STARLINK-30073,2023-079T,2026-06-30T22:00:01.999584,15.27547836,.00015957,43.0019,12.9332,277.9677,318.7714,0,U,56840,999,585,.19682327E-2,.54245E-3,0
STARLINK-30078,2023-079U,2026-06-30T21:47:13.070688,15.27577308,.00008795,43.0008,139.9661,269.1754,90.8997,0,U,56841,999,17076,.24394302E-4,.409E-5,0
STARLINK-30135,2023-079V,2026-06-30T23:42:32.877792,15.27573900,.00012045,43.0021,187.2870,274.1679,85.9035,0,U,56842,999,17021,.9161347E-5,-.1E-6,0
STARLINK-30137,2023-079W,2026-06-29T12:35:56.888736,15.27583199,.00016165,43.0010,195.2255,290.3738,69.6940,0,U,56843,999,16999,.2597185E-5,-.191E-5,0
STARLINK-30136,2023-079X,2026-06-29T17:38:45.955968,15.27578974,.00016653,42.9989,194.2184,270.9626,89.1035,0,U,56844,999,17002,.26725321E-4,.473E-5,0
2023-081A,2023-081A,2026-06-30T21:54:58.288032,15.23388747,.00020521,97.3699,251.7622,120.6295,239.5144,0,U,56846,999,17010,.12978619E-3,.3017E-4,0
2023-081W,2023-081W,2026-06-30T22:04:55.733664,15.25181030,.00092798,97.2892,245.0928,329.8370,30.2333,0,U,56866,999,17012,.33295677E-3,.8295E-4,0
LONGJIANG 3,2023-082A,2026-06-30T23:09:52.505856,15.40439905,.00019686,49.1084,333.9326,285.7162,74.3570,0,U,56874,999,17149,.54434135E-3,.22111E-3,0
STARLINK-6206,2023-083A,2026-06-30T23:26:10.693824,15.27580226,.00012063,43.0014,165.6289,264.0543,96.0171,0,U,56876,999,16895,.3535074E-4,.711E-5,0
STARLINK-6209,2023-083B,2026-06-30T09:51:52.263648,15.27573883,.00008826,43.0027,168.2634,307.0243,53.0528,0,U,56877,999,16887,-.299659E-5,-.344E-5,0
STARLINK-6182,2023-083C,2026-06-29T16:12:18.504288,15.27574382,.00009953,43.0010,173.0637,265.8010,94.2727,0,U,56878,999,16875,.26751129E-4,.474E-5,0
STARLINK-5707,2023-083D,2026-06-30T23:40:58.688832,15.27581432,.00007895,43.0017,165.7031,279.5110,80.5652,0,U,56879,999,16895,.12675362E-4,.87E-6,0
STARLINK-6177,2023-083E,2026-06-30T23:00:16.632576,15.27566555,.00012658,43.0023,165.4954,257.5997,102.4713,0,U,56880,999,16895,-.20098038E-4,-.815E-5,0
STARLINK-5853,2023-083F,2026-06-30T09:39:06.521184,15.27588023,.00010809,43.0006,169.0539,255.3815,104.6917,0,U,56881,999,16886,.74709953E-4,.1795E-4,0
STARLINK-6175,2023-083G,2026-06-29T23:18:40.594752,15.27579825,.00016815,43.0042,170.9851,265.0954,94.9706,0,U,56882,999,16880,.24426752E-4,.41E-5,0
STARLINK-6171,2023-083H,2026-06-30T10:06:42.138720,15.27558475,.00011372,43.0007,168.3421,299.4382,60.6356,0,U,56883,999,16887,-.66556357E-4,-.2092E-4,0
STARLINK-5515,2023-083J,2026-06-30T09:48:10.102464,15.27574163,.00012819,43.0037,168.2444,269.7421,90.3284,0,U,56884,999,16887,.3742346E-5,-.159E-5,0
STARLINK-5095,2023-083K,2026-06-29T16:56:29.715936,15.27580571,.00023023,43.0041,172.4309,293.3710,66.6900,0,U,56885,999,16876,.54207186E-4,.1229E-4,0
STARLINK-5496,2023-083L,2026-06-30T09:53:43.143360,15.27575553,.00013744,43.0033,168.2712,287.9584,72.1118,0,U,56886,999,16887,.19768698E-4,.282E-5,0
STARLINK-6180,2023-083M,2026-06-30T22:44:58.443360,15.27575961,.00012348,43.0023,169.6775,284.9675,75.1040,0,U,56887,999,16890,.24150675E-4,.402E-5,0
STARLINK-6181,2023-083N,2026-06-30T23:21:46.251936,15.27579968,.00013308,43.0013,169.0137,264.4349,95.6351,0,U,56888,999,16891,.5526509E-4,.1259E-4,0
STARLINK-6169,2023-083P,2026-06-30T22:30:40.461984,15.27552095,.00044474,43.0100,165.3303,272.7580,87.2763,0,U,56889,999,16894,.79623839E-4,.1927E-4,0
